#aV2007  6  4  0  0   .00000000      96 DD+AD WGS84 FIT  NGA
## 1430  86400.00000000   900.00000000 54255  .0000000000000
+   30     1  2  3  4  5  6  7  8  9 10 11 12 13 14 16 17 18
+         19 20 21 22 23 24 25 26 27 28 29 30 31  0  0  0  0
+          0  0  0  0  0  0  0  0  0  0  0  0  0  0  0  0  0
+          0  0  0  0  0  0  0  0  0  0  0  0  0  0  0  0  0
+          0  0  0  0  0  0  0  0  0  0  0  0  0  0  0  0  0
++         0  0  0  0  0  0  0  0  0  0  0  0  0  0  0  0  0
++         0  0  0  0  0  0  0  0  0  0  0  0  0  0  0  0  0
++         0  0  0  0  0  0  0  0  0  0  0  0  0  0  0  0  0
++         0  0  0  0  0  0  0  0  0  0  0  0  0  0  0  0  0
++         0  0  0  0  0  0  0  0  0  0  0  0  0  0  0  0  0
%c cc cc ccc ccc cccc cccc cccc cccc ccccc ccccc ccccc ccccc
%c cc cc ccc ccc cccc cccc cccc cccc ccccc ccccc ccccc ccccc
%f  0.0000000  0.000000000  0.00000000000  0.000000000000000
%f  0.0000000  0.000000000  0.00000000000  0.000000000000000
%i    0    0    0    0      0      0      0      0         0
%i    0    0    0    0      0      0      0      0         0
/*      NGA, ST. LOUIS,MO.                                  
/*   EPHEMERIS COMPUTED FROM  3 DAYS OF DATA                
/* CCCCCCCCCCCCCCCCCCCCCCCCCCCCCCCCCCCCCCCCCCCCCCCCCCCCCCCCC
/* CCCCCCCCCCCCCCCCCCCCCCCCCCCCCCCCCCCCCCCCCCCCCCCCCCCCCCCCC
*  2007  6  4  3 45   .00000000                                                 
P  1  17473.146516   7346.705241 -18422.934898    132.095478                    
V  1  10046.229711  21527.305681  17851.225990       .022619                    
P  2 -18084.280012   4098.254474 -19120.058284    111.575781                    
V  2  10305.296566 -21715.874651 -14848.446637       .028480                    
P  3  18513.435418   1249.071314  18908.417992     67.222884                    
V  3  13083.617342  20746.795020 -13690.274123       .055499                    
P  4 -13497.824758  -7748.128343 -21585.842298     10.309481                    
V  4  13947.016319 -23485.192252     62.020558      -.005435                    
P  5 -11246.728771  14997.839248 -18997.033911      2.967058                    
V  5 -23801.761824    557.783304  14868.816932       .540745                    
P  6   3678.568164  23015.176116 -12507.728564    204.326258                    
V  6 -11333.457350 -12065.244394 -25191.865774       .112347                    
P  7   7448.945071  23510.032955  -9428.635872    272.455673                    
V  7  -9824.503445  -8488.811040 -27965.552424      -.181591                    
P  8  -4767.210533 -17055.526893  19532.228237   -109.705281                    
V  8  14508.339777 -20578.402857 -14771.796577      -.015617                    
P  9 -14765.961787  21260.715056   4793.575421     73.150263                    
V  9    638.869794  -7417.676525  31240.378090       .014481                    
P 10 -26641.203466    875.837310   1943.913569    102.849680                    
V 10  -2545.418193  -2332.362785 -31599.784060       .005204                    
P 11  12218.696307 -22937.722220   4570.394960     17.596527                    
V 11   2674.286500   7407.309345  29628.022401       .009104                    
P 12 -16331.789083  12016.714576 -17014.419492    -46.045172                    
V 12 -21852.615673  -1617.121475  19767.400018      -.007803                    
P 13  -4332.495579 -23664.189423 -11404.500495    178.381304                    
V 13   8035.698907  11866.030329 -27894.126740       .033644                    
P 14  16127.617592  20113.760120  -6476.740393     23.260465                    
V 14   2467.027123   8118.482761  30891.153707       .018115                    
P 16  26230.668710   2747.820875  -3691.521029    152.956141                    
V 16  -4789.195311   2546.467095 -31255.718939       .028701                    
P 17 -15552.795466 -21229.594524  -4060.343705     65.839952                    
V 17   -233.869796  -5821.841479  31081.876527      -.014853                    
P 18   5597.121887  15257.618114  21198.678561   -248.296429                    
V 18 -26569.339304   -374.091258   6994.478786       .009745                    
P 19  13017.664692  -8201.889309  21747.513487     39.787653                    
V 19  12489.573931  24377.324224   1840.892312       .032475                    
P 20  14890.541442 -12986.983403 -17842.855499    -25.272957                    
V 20  22508.627921   1299.311516  17980.975613      -.004049                    
P 21  -1562.377450  22269.150002  14056.972022     77.586971                    
V 21 -11904.725393  13744.408297 -23878.526949       .003878                    
P 22  17709.882050  12063.663677  15867.342998    185.067326                    
V 22 -19953.715247   1264.092560  21481.900843       .016132                    
P 23   4139.002569 -18345.125003 -18755.825864    171.159209                    
V 23  13168.526960  19739.345745 -16675.362979       .028215                    
P 24 -12072.857036  23596.090565   3573.025343      4.856514                    
V 24  -4528.745147   2153.533343 -31039.595784       .027894                    
P 25   7501.912588 -25176.977953   4961.488174    295.235734                    
V 25   4716.746563  -4218.270207 -30790.184428       .233085                    
P 26 -13921.798093   4198.206056  21819.829975   -230.799913                    
V 26 -13623.927479 -25213.032778  -3220.145099      -.211449                    
P 27    507.404192 -22906.710372  13872.704643    114.585992                    
V 27   9191.711954 -14021.123099 -24873.191155       .021562                    
P 28 -14462.698134 -13134.443263  18486.644511      -.269368                    
V 28  22675.928775   -870.842605  17102.901867      -.007292                    
P 29 -16180.627991    171.532477  21343.136463      3.351283                    
V 29 -13075.554426 -23012.932459  -9458.569367       .003765                    
P 30  -4667.033686  15575.258636 -21293.513266     35.676883                    
V 30 -26402.638642    501.413944   6359.275056       .010287                    
P 31  13695.856481   6375.727116 -21651.426948     18.600331                    
V 31 -13625.130570  24407.898775  -1348.159559      -.006960                    
EOF
